IRIDIUM 135             
1 43070U 17083A   26168.84925021 -.00000009  00000+0 -10360-4 0  9991
2 43070  86.3961 321.7386 0002068  91.5794 268.5639 14.34217309444241
IRIDIUM 138             
1 43071U 17083B   26168.87461971  .00000093  00000+0  26020-4 0  9995
2 43071  86.3979 321.4234 0002311  87.1263 273.0198 14.34217811444231
IRIDIUM 116             
1 43072U 17083C   26168.84290643  .00000008  00000+0 -40651-5 0  9993
2 43072  86.3960 321.7272 0001883  99.6153 260.5256 14.34217649444264
IRIDIUM 130             
1 43073U 17083D   26168.88095925  .00000145  00000+0  44661-4 0  9999
2 43073  86.3972 321.9864 0001941  92.8139 267.3279 14.34219070444216
IRIDIUM 151             
1 43074U 17083E   26168.85559278 -.00000010  00000+0 -10492-4 0  9991
2 43074  86.3962 321.7797 0002051  93.2610 266.8821 14.34217310444235
IRIDIUM 134             
1 43075U 17083F   26168.89364829 -.00000053  00000+0 -25937-4 0  9999
2 43075  86.3962 321.7718 0001999  91.8364 268.3061 14.34217031444209
IRIDIUM 137             
1 43076U 17083G   26168.83656428  .00000014  00000+0 -19556-5 0  9990
2 43076  86.3965 321.8885 0002177 104.4133 255.7305 14.34217663444261
IRIDIUM 141             
1 43077U 17083H   26168.83022146  .00000029  00000+0  34134-5 0  9999
2 43077  86.3964 321.7215 0002225  91.0633 269.0818 14.34217841444262
IRIDIUM 153             
1 43078U 17083J   26168.85216967  .00000027  00000+0  24717-5 0  9992
2 43078  86.3961 290.1927 0002244  89.7518 270.3935 14.34217608445375
IRIDIUM 131             
1 43079U 17083K   26168.88730403  .00000083  00000+0  22604-4 0  9996
2 43079  86.3970 321.8835 0002201  91.5806 268.5642 14.34217340444208
IRIDIUM 144             
1 43249U 18030A   26168.85851151  .00000162  00000+0  50932-4 0  9992
2 43249  86.3959 290.1190 0002108  97.4113 262.7322 14.34217126430239
IRIDIUM 149             
1 43250U 18030B   26168.86485495  .00000042  00000+0  78425-5 0  9994
2 43250  86.3958 290.0834 0002263  93.5840 266.5615 14.34217604430250
IRIDIUM 157             
1 43251U 18030C   26168.88388284 -.00000026  00000+0 -16234-4 0  9998
2 43251  86.3956 290.1289 0002099  93.9207 266.2229 14.34217211430232
IRIDIUM 140             
1 43252U 18030D   26168.83314175  .00000004  00000+0 -56850-5 0  9996
2 43252  86.3955 290.1627 0002033  94.0384 266.1044 14.34217405430288
IRIDIUM 145             
1 43253U 18030E   26168.89022496  .00000027  00000+0  27423-5 0  9993
2 43253  86.3960 290.1108 0002019 101.3483 258.7940 14.34217426430224
IRIDIUM 146             
1 43254U 18030F   26168.87119444  .00000154  00000+0  47757-4 0  9994
2 43254  86.3959 290.1310 0002122  96.8905 263.2533 14.34219052430237
IRIDIUM 148             
1 43255U 18030G   26168.83948466  .00000007  00000+0 -46855-5 0  9992
2 43255  86.3957 290.1877 0002161  96.3205 263.8237 14.34217478430265
IRIDIUM 142             
1 43256U 18030H   26168.87754002  .00000008  00000+0 -41108-5 0  9995
2 43256  86.3953 290.0607 0002006  99.2687 260.8736 14.34217266430239
IRIDIUM 150             
1 43257U 18030J   26168.84582671  .00000046  00000+0  92218-5 0  9993
2 43257  86.3960 290.1901 0002152  93.8927 266.2515 14.34217750430250
IRIDIUM 143             
1 43258U 18030K   26168.82679904  .00000008  00000+0 -43606-5 0  9994
2 43258  86.3960 290.2908 0001989  96.8705 263.2717 14.34217311430189
IRIDIUM 161             
1 43478U 18047C   26168.86230374  .00000258  00000+0  70755-4 0  9994
2 43478  86.4482  88.1887 0002585  84.3724 275.7772 14.43278788425233
IRIDIUM 152             
1 43479U 18047D   26168.86928657  .00000158  00000+0  49224-4 0  9999
2 43479  86.3957  88.0472 0002339  82.7690 277.3771 14.34217225422581
IRIDIUM 147             
1 43480U 18047E   26168.87562837  .00000011  00000+0 -30515-5 0  9999
2 43480  86.3959  88.0496 0002031  85.7468 274.3960 14.34217471422586
IRIDIUM 110             
1 43481U 18047F   26168.81220355  .00000122  00000+0  36402-4 0  9992
2 43481  86.3960  88.1680 0002560  81.6903 278.4583 14.34217514422563
IRIDIUM 162             
1 43482U 18047G   26168.78667857  .00000268  00000+0  73820-4 0  9997
2 43482  86.4481  88.1117 0002261  82.3396 277.8062 14.43281937425210
IRIDIUM 160             
1 43569U 18061A   26168.75803804  .00000037  00000+0  60292-5 0  9994
2 43569  86.3962  56.5589 0002274  85.8180 274.3276 14.34217814413459
IRIDIUM 166             
1 43570U 18061B   26168.64387134  .00000005  00000+0 -52179-5 0  9998
2 43570  86.3959  56.5568 0002006  86.5849 273.5577 14.34217510413466
IRIDIUM 158             
1 43571U 18061C   26168.75169508 -.00000014  00000+0 -12074-4 0  9994
2 43571  86.3959  56.5217 0002092  82.3493 277.7941 14.34217345413447
IRIDIUM 165             
1 43572U 18061D   26168.63752826  .00000072  00000+0  18560-4 0  9991
2 43572  86.3962  56.6160 0002062  86.9016 273.2416 14.34217466413451
IRIDIUM 155             
1 43573U 18061E   26168.73901022  .00000037  00000+0  61247-5 0  9999
2 43573  86.3958  56.4426 0002110  82.7931 277.3505 14.34217689413433
