OBJECT_NAME,OBJECT_ID,EPOCH,MEAN_MOTION,ECCENTRICITY,INCLINATION,RA_OF_ASC_NODE,ARG_OF_PERICENTER,MEAN_ANOMALY,EPHEMERIS_TYPE,CLASSIFICATION_TYPE,NORAD_CAT_ID,ELEMENT_SET_NO,REV_AT_EPOCH,BSTAR,MEAN_MOTION_DOT,MEAN_MOTION_DDOT
IRIDIUM 135,2017-083A,2026-06-17T20:22:55.218144,14.34217309,.00020686,86.3961,321.7386,91.5794,268.5639,0,U,43070,999,44424,-.10359904E-4,-.9E-7,0
IRIDIUM 138,2017-083B,2026-06-17T20:59:27.142944,14.34217811,.00023117,86.3979,321.4234,87.1263,273.0198,0,U,43071,999,44423,.2602023E-4,.93E-6,0
IRIDIUM 116,2017-083C,2026-06-17T20:13:47.115552,14.34217649,.00018832,86.3960,321.7272,99.6153,260.5256,0,U,43072,999,44426,-.4065099E-5,.8E-7,0
IRIDIUM 130,2017-083D,2026-06-17T21:08:34.879200,14.34219070,.00019414,86.3972,321.9864,92.8139,267.3279,0,U,43073,999,44421,.44661147E-4,.145E-5,0
IRIDIUM 151,2017-083E,2026-06-17T20:32:03.216192,14.34217310,.00020513,86.3962,321.7797,93.2610,266.8821,0,U,43074,999,44423,-.10492414E-4,-.1E-6,0
IRIDIUM 134,2017-083F,2026-06-17T21:26:51.212256,14.34217031,.00019991,86.3962,321.7718,91.8364,268.3061,0,U,43075,999,44420,-.25937309E-4,-.53E-6,0
IRIDIUM 137,2017-083G,2026-06-17T20:04:39.153792,14.34217663,.00021778,86.3965,321.8885,104.4133,255.7305,0,U,43076,999,44426,-.1955614E-5,.14E-6,0
IRIDIUM 141,2017-083H,2026-06-17T19:55:31.134144,14.34217841,.00022258,86.3964,321.7215,91.0633,269.0818,0,U,43077,999,44426,.3413392E-5,.29E-6,0
IRIDIUM 153,2017-083J,2026-06-17T20:27:07.459488,14.34217608,.00022446,86.3961,290.1927,89.7518,270.3935,0,U,43078,999,44537,.2471691E-5,.27E-6,0
IRIDIUM 131,2017-083K,2026-06-17T21:17:43.068192,14.34217340,.00022018,86.3970,321.8835,91.5806,268.5642,0,U,43079,999,44420,.22604039E-4,.83E-6,0
IRIDIUM 144,2018-030A,2026-06-17T20:36:15.394464,14.34217126,.00021086,86.3959,290.1190,97.4113,262.7322,0,U,43249,999,43023,.50932153E-4,.162E-5,0
IRIDIUM 149,2018-030B,2026-06-17T20:45:23.467680,14.34217604,.00022633,86.3958,290.0834,93.5840,266.5615,0,U,43250,999,43025,.7842473E-5,.42E-6,0
IRIDIUM 157,2018-030C,2026-06-17T21:12:47.477376,14.34217211,.00020995,86.3956,290.1289,93.9207,266.2229,0,U,43251,999,43023,-.16233914E-4,-.26E-6,0
IRIDIUM 140,2018-030D,2026-06-17T19:59:43.447200,14.34217405,.00020331,86.3955,290.1627,94.0384,266.1044,0,U,43252,999,43028,-.5684972E-5,.4E-7,0
IRIDIUM 145,2018-030E,2026-06-17T21:21:55.436544,14.34217426,.00020193,86.3960,290.1108,101.3483,258.7940,0,U,43253,999,43022,.2742313E-5,.27E-6,0
IRIDIUM 146,2018-030F,2026-06-17T20:54:31.199616,14.34219052,.00021229,86.3959,290.1310,96.8905,263.2533,0,U,43254,999,43023,.47756935E-4,.154E-5,0
IRIDIUM 148,2018-030G,2026-06-17T20:08:51.474624,14.34217478,.00021618,86.3957,290.1877,96.3205,263.8237,0,U,43255,999,43026,-.4685502E-5,.7E-7,0
IRIDIUM 142,2018-030H,2026-06-17T21:03:39.457728,14.34217266,.00020068,86.3953,290.0607,99.2687,260.8736,0,U,43256,999,43023,-.4110792E-5,.8E-7,0
IRIDIUM 150,2018-030J,2026-06-17T20:17:59.427744,14.34217750,.0002152,86.3960,290.1901,93.8927,266.2515,0,U,43257,999,43025,.9221769E-5,.46E-6,0
IRIDIUM 143,2018-030K,2026-06-17T19:50:35.437056,14.34217311,.00019899,86.3960,290.2908,96.8705,263.2717,0,U,43258,999,43018,-.4360556E-5,.8E-7,0
IRIDIUM 161,2018-047C,2026-06-17T20:41:43.043136,14.43278788,.00025855,86.4482,88.1887,84.3724,275.7772,0,U,43478,999,42523,.70755353E-4,.258E-5,0
IRIDIUM 152,2018-047D,2026-06-17T20:51:46.359648,14.34217225,.00023399,86.3957,88.0472,82.7690,277.3771,0,U,43479,999,42258,.49223713E-4,.158E-5,0
IRIDIUM 147,2018-047E,2026-06-17T21:00:54.291168,14.34217471,.0002031,86.3959,88.0496,85.7468,274.3960,0,U,43480,999,42258,-.3051517E-5,.11E-6,0
IRIDIUM 110,2018-047F,2026-06-17T19:29:34.386720,14.34217514,.000256,86.3960,88.1680,81.6903,278.4583,0,U,43481,999,42256,.36402107E-4,.122E-5,0
IRIDIUM 162,2018-047G,2026-06-17T18:52:49.028448,14.43281937,.00022619,86.4481,88.1117,82.3396,277.8062,0,U,43482,999,42521,.73819546E-4,.268E-5,0
IRIDIUM 160,2018-061A,2026-06-17T18:11:34.486656,14.34217814,.00022742,86.3962,56.5589,85.8180,274.3276,0,U,43569,999,41345,.6029235E-5,.37E-6,0
IRIDIUM 166,2018-061B,2026-06-17T15:27:10.483776,14.34217510,.00020068,86.3959,56.5568,86.5849,273.5577,0,U,43570,999,41346,-.5217942E-5,.5E-7,0
IRIDIUM 158,2018-061C,2026-06-17T18:02:26.454912,14.34217345,.00020926,86.3959,56.5217,82.3493,277.7941,0,U,43571,999,41344,-.12073517E-4,-.14E-6,0
IRIDIUM 165,2018-061D,2026-06-17T15:18:02.441664,14.34217466,.00020623,86.3962,56.6160,86.9016,273.2416,0,U,43572,999,41345,.18559966E-4,.72E-6,0
IRIDIUM 155,2018-061E,2026-06-17T17:44:10.483008,14.34217689,.00021109,86.3958,56.4426,82.7931,277.3505,0,U,43573,999,41343,.6124682E-5,.37E-6,0
